start=new Date('2022-03-22T00:00:00.000Z').valueOf();
sats=[{"MEAN_ANOMALY":"241.4805","MEAN_MOTION_DDOT":"0.0000000000000","GP_ID":"199351905","PERIOD":"91.546","EPHEMERIS_TYPE":"0","SITE":"AFETR","OBJECT_ID":"2022-025AF","LAUNCH_DATE":"2022-03-09","FILE":"3368836","MEAN_MOTION_DOT":"0.00354545","TIME_SYSTEM":"UTC","NORAD_CAT_ID":"51985","ECCENTRICITY":"0.00011780","TLE_LINE2":"2 51985  53.2177  78.5951 0001178  65.9536 241.4805 15.72981657  2165","OBJECT_NAME":"STARLINK-3651","BSTAR":"0.00244810000000","DECAY_DATE":null,"OBJECT_TYPE":"PAYLOAD","CLASSIFICATION_TYPE":"U","CENTER_NAME":"EARTH","ARG_OF_PERICENTER":"65.9536","PERIAPSIS":"349.590","APOAPSIS":"351.175","TLE_LINE1":"1 51985U 22025AF  22080.91667824  .00354545  00000-0  24481-2 0  9991","SEMIMAJOR_AXIS":"6728.518","COUNTRY_CODE":"US","RCS_SIZE":"LARGE","EPOCH":"2022-03-21T22:00:00.999936","MEAN_MOTION":"15.72981657","RA_OF_ASC_NODE":"78.5951","ELEMENT_SET_NO":"999","REV_AT_EPOCH":"216","REF_FRAME":"TEME","MEAN_ELEMENT_THEORY":"SGP4","INCLINATION":"53.2177"},{"REF_FRAME":"TEME","MEAN_ELEMENT_THEORY":"SGP4","ELEMENT_SET_NO":"999","REV_AT_EPOCH":"216","INCLINATION":"53.2174","EPOCH":"2022-03-21T22:00:00.999936","SEMIMAJOR_AXIS":"6727.883","RCS_SIZE":"LARGE","COUNTRY_CODE":"US","MEAN_MOTION":"15.73204114","RA_OF_ASC_NODE":"78.5849","TLE_LINE1":"1 51986U 22025AG  22080.91667824 -.00000512  00000-0  76377-6 0  9990","PERIAPSIS":"348.997","APOAPSIS":"350.500","CENTER_NAME":"EARTH","ARG_OF_PERICENTER":"79.3386","OBJECT_NAME":"STARLINK-3645","CLASSIFICATION_TYPE":"U","BSTAR":"0.00000076377000","DECAY_DATE":null,"OBJECT_TYPE":"PAYLOAD","NORAD_CAT_ID":"51986","ECCENTRICITY":"0.00011170","MEAN_MOTION_DOT":"-0.00000512","TIME_SYSTEM":"UTC","TLE_LINE2":"2 51986  53.2174  78.5849 0001117  79.3386 232.4507 15.73204114  2160","FILE":"3368836","GP_ID":"199351464","PERIOD":"91.533","MEAN_ANOMALY":"232.4507","MEAN_MOTION_DDOT":"0.0000000000000","LAUNCH_DATE":"2022-03-09","OBJECT_ID":"2022-025AG","EPHEMERIS_TYPE":"0","SITE":"AFETR"},{"FILE":"3368836","OBJECT_ID":"2022-025AH","LAUNCH_DATE":"2022-03-09","EPHEMERIS_TYPE":"0","SITE":"AFETR","GP_ID":"199351685","PERIOD":"91.533","MEAN_ANOMALY":"223.4190","MEAN_MOTION_DDOT":"0.0000000000000","CLASSIFICATION_TYPE":"U","BSTAR":"0.00000108960000","DECAY_DATE":null,"OBJECT_TYPE":"PAYLOAD","OBJECT_NAME":"STARLINK-3644","TLE_LINE2":"2 51987  53.2174  78.5897 0001122  85.8156 223.4190 15.73204101  2161","NORAD_CAT_ID":"51987","ECCENTRICITY":"0.00011220","MEAN_MOTION_DOT":"-0.00000467","TIME_SYSTEM":"UTC","TLE_LINE1":"1 51987U 22025AH  22080.91667824 -.00000467  00000-0  10896-5 0  9993","PERIAPSIS":"348.994","APOAPSIS":"350.503","ARG_OF_PERICENTER":"85.8156","CENTER_NAME":"EARTH","INCLINATION":"53.2174","REF_FRAME":"TEME","MEAN_ELEMENT_THEORY":"SGP4","REV_AT_EPOCH":"216","ELEMENT_SET_NO":"999","MEAN_MOTION":"15.73204101","RA_OF_ASC_NODE":"78.5897","EPOCH":"2022-03-21T22:00:00.999936","SEMIMAJOR_AXIS":"6727.883","RCS_SIZE":"LARGE","COUNTRY_CODE":"US"},{"FILE":"3368836","GP_ID":"199351246","PERIOD":"91.533","MEAN_ANOMALY":"230.1494","MEAN_MOTION_DDOT":"0.0000000000000","LAUNCH_DATE":"2022-03-09","OBJECT_ID":"2022-025AJ","EPHEMERIS_TYPE":"0","SITE":"AFETR","OBJECT_NAME":"STARLINK-3640","CLASSIFICATION_TYPE":"U","DECAY_DATE":null,"BSTAR":"0.00000127150000","OBJECT_TYPE":"PAYLOAD","NORAD_CAT_ID":"51988","ECCENTRICITY":"0.00011140","MEAN_MOTION_DOT":"-0.00000441","TIME_SYSTEM":"UTC","TLE_LINE2":"2 51988  53.2174  78.5836 0001114  82.2786 230.1494 15.73204078  2161","TLE_LINE1":"1 51988U 22025AJ  22080.91667824 -.00000441  00000-0  12715-5 0  9998","PERIAPSIS":"348.999","APOAPSIS":"350.498","CENTER_NAME":"EARTH","ARG_OF_PERICENTER":"82.2786","REF_FRAME":"TEME","MEAN_ELEMENT_THEORY":"SGP4","ELEMENT_SET_NO":"999","REV_AT_EPOCH":"216","INCLINATION":"53.2174","EPOCH":"2022-03-21T22:00:00.999936","SEMIMAJOR_AXIS":"6727.884","COUNTRY_CODE":"US","RCS_SIZE":"MEDIUM","RA_OF_ASC_NODE":"78.5836","MEAN_MOTION":"15.73204078"},{"MEAN_MOTION":"15.73204127","RA_OF_ASC_NODE":"78.5885","SEMIMAJOR_AXIS":"6727.883","RCS_SIZE":"MEDIUM","COUNTRY_CODE":"US","EPOCH":"2022-03-21T22:00:00.999936","INCLINATION":"53.2174","REV_AT_EPOCH":"216","ELEMENT_SET_NO":"999","MEAN_ELEMENT_THEORY":"SGP4","REF_FRAME":"TEME","ARG_OF_PERICENTER":"65.3149","CENTER_NAME":"EARTH","PERIAPSIS":"348.947","APOAPSIS":"350.550","TLE_LINE1":"1 51989U 22025AK  22080.91667824 -.00000522  00000-0  69855-6 0  9997","TLE_LINE2":"2 51989  53.2174  78.5885 0001191  65.3149 244.5583 15.73204127  2169","MEAN_MOTION_DOT":"-0.00000522","TIME_SYSTEM":"UTC","NORAD_CAT_ID":"51989","ECCENTRICITY":"0.00011910","BSTAR":"0.00000069855000","DECAY_DATE":null,"OBJECT_TYPE":"PAYLOAD","CLASSIFICATION_TYPE":"U","OBJECT_NAME":"STARLINK-3642","EPHEMERIS_TYPE":"0","SITE":"AFETR","OBJECT_ID":"2022-025AK","LAUNCH_DATE":"2022-03-09","MEAN_ANOMALY":"244.5583","MEAN_MOTION_DDOT":"0.0000000000000","GP_ID":"199351796","PERIOD":"91.533","FILE":"3368836"},{"MEAN_MOTION":"15.73204099","RA_OF_ASC_NODE":"78.5810","COUNTRY_CODE":"US","RCS_SIZE":"MEDIUM","SEMIMAJOR_AXIS":"6727.883","EPOCH":"2022-03-21T22:00:00.999936","INCLINATION":"53.2174","ELEMENT_SET_NO":"999","REV_AT_EPOCH":"216","REF_FRAME":"TEME","MEAN_ELEMENT_THEORY":"SGP4","ARG_OF_PERICENTER":"71.3422","CENTER_NAME":"EARTH","APOAPSIS":"350.534","PERIAPSIS":"348.963","TLE_LINE1":"1 51990U 22025AL  22080.91667824 -.00000494  00000-0  89721-6 0  9991","TLE_LINE2":"2 51990  53.2174  78.5810 0001167  71.3422 242.3632 15.73204099  2162","TIME_SYSTEM":"UTC","MEAN_MOTION_DOT":"-0.00000494","ECCENTRICITY":"0.00011670","NORAD_CAT_ID":"51990","OBJECT_TYPE":"PAYLOAD","DECAY_DATE":null,"BSTAR":"0.00000089721000","CLASSIFICATION_TYPE":"U","OBJECT_NAME":"STARLINK-3657","SITE":"AFETR","EPHEMERIS_TYPE":"0","OBJECT_ID":"2022-025AL","LAUNCH_DATE":"2022-03-09","MEAN_MOTION_DDOT":"0.0000000000000","MEAN_ANOMALY":"242.3632","PERIOD":"91.533","GP_ID":"199351136","FILE":"3368836"},{"SITE":"AFETR","EPHEMERIS_TYPE":"0","LAUNCH_DATE":"2022-03-09","OBJECT_ID":"2022-025AM","MEAN_MOTION_DDOT":"0.0000000000000","MEAN_ANOMALY":"246.4975","PERIOD":"91.533","GP_ID":"199351356","FILE":"3368836","TLE_LINE2":"2 51991  53.2174  78.5859 0001204  64.6531 246.4975 15.73204059  2165","TIME_SYSTEM":"UTC","MEAN_MOTION_DOT":"-0.00000392","ECCENTRICITY":"0.00012040","NORAD_CAT_ID":"51991","OBJECT_TYPE":"PAYLOAD","DECAY_DATE":null,"BSTAR":"0.00000162190000","CLASSIFICATION_TYPE":"U","OBJECT_NAME":"STARLINK-3652","ARG_OF_PERICENTER":"64.6531","CENTER_NAME":"EARTH","APOAPSIS":"350.559","PERIAPSIS":"348.939","TLE_LINE1":"1 51991U 22025AM  22080.91667824 -.00000392  00000-0  16219-5 0  9990","MEAN_MOTION":"15.73204059","RA_OF_ASC_NODE":"78.5859","RCS_SIZE":"LARGE","COUNTRY_CODE":"US","SEMIMAJOR_AXIS":"6727.884","EPOCH":"2022-03-21T22:00:00.999936","INCLINATION":"53.2174","REV_AT_EPOCH":"216","ELEMENT_SET_NO":"999","MEAN_ELEMENT_THEORY":"SGP4","REF_FRAME":"TEME"},{"FILE":"3368836","LAUNCH_DATE":"2022-03-09","OBJECT_ID":"2022-025AN","EPHEMERIS_TYPE":"0","SITE":"AFETR","GP_ID":"199351575","PERIOD":"91.533","MEAN_ANOMALY":"239.7050","MEAN_MOTION_DDOT":"0.0000000000000","CLASSIFICATION_TYPE":"U","BSTAR":"0.00000106120000","DECAY_DATE":null,"OBJECT_TYPE":"PAYLOAD","OBJECT_NAME":"STARLINK-3643","TLE_LINE2":"2 51992  53.2174  78.5771 0001132  75.9164 239.7050 15.73204082  2161","NORAD_CAT_ID":"51992","ECCENTRICITY":"0.00011320","MEAN_MOTION_DOT":"-0.00000471","TIME_SYSTEM":"UTC","TLE_LINE1":"1 51992U 22025AN  22080.91667824 -.00000471  00000-0  10612-5 0  9990","PERIAPSIS":"348.987","APOAPSIS":"350.510","ARG_OF_PERICENTER":"75.9164","CENTER_NAME":"EARTH","INCLINATION":"53.2174","REF_FRAME":"TEME","MEAN_ELEMENT_THEORY":"SGP4","ELEMENT_SET_NO":"999","REV_AT_EPOCH":"216","MEAN_MOTION":"15.73204082","RA_OF_ASC_NODE":"78.5771","EPOCH":"2022-03-21T22:00:00.999936","SEMIMAJOR_AXIS":"6727.884","RCS_SIZE":"MEDIUM","COUNTRY_CODE":"US"},{"TLE_LINE2":"2 51993  53.2174  78.5820 0001183  68.0419 245.0248 15.73204106  2165","MEAN_MOTION_DOT":"-0.00000504","TIME_SYSTEM":"UTC","NORAD_CAT_ID":"51993","ECCENTRICITY":"0.00011830","DECAY_DATE":null,"BSTAR":"0.00000082445000","OBJECT_TYPE":"PAYLOAD","CLASSIFICATION_TYPE":"U","OBJECT_NAME":"STARLINK-3648","EPHEMERIS_TYPE":"0","SITE":"AFETR","LAUNCH_DATE":"2022-03-09","OBJECT_ID":"2022-025AP","MEAN_ANOMALY":"245.0248","MEAN_MOTION_DDOT":"0.0000000000000","GP_ID":"199351906","PERIOD":"91.533","FILE":"3368836","RA_OF_ASC_NODE":"78.5820","MEAN_MOTION":"15.73204106","SEMIMAJOR_AXIS":"6727.883","COUNTRY_CODE":"US","RCS_SIZE":"LARGE","EPOCH":"2022-03-21T22:00:00.999936","INCLINATION":"53.2174","REV_AT_EPOCH":"216","ELEMENT_SET_NO":"999","MEAN_ELEMENT_THEORY":"SGP4","REF_FRAME":"TEME","ARG_OF_PERICENTER":"68.0419","CENTER_NAME":"EARTH","PERIAPSIS":"348.953","APOAPSIS":"350.544","TLE_LINE1":"1 51993U 22025AP  22080.91667824 -.00000504  00000-0  82445-6 0  9992"},{"CLASSIFICATION_TYPE":"U","BSTAR":"0.00000244600000","DECAY_DATE":null,"OBJECT_TYPE":"PAYLOAD","OBJECT_NAME":"STARLINK-3647","TLE_LINE2":"2 51994  53.2174  78.5758 0001119  75.5298 240.7303 15.73203986  3231","NORAD_CAT_ID":"51994","ECCENTRICITY":"0.00011190","MEAN_MOTION_DOT":"-0.00000276","TIME_SYSTEM":"UTC","FILE":"3368817","OBJECT_ID":"2022-025AQ","LAUNCH_DATE":"2022-03-09","EPHEMERIS_TYPE":"0","SITE":"AFETR","GP_ID":"199300107","PERIOD":"91.533","MEAN_ANOMALY":"240.7303","MEAN_MOTION_DDOT":"0.0000000000000","INCLINATION":"53.2174","MEAN_ELEMENT_THEORY":"SGP4","REF_FRAME":"TEME","REV_AT_EPOCH":"323","ELEMENT_SET_NO":"999","MEAN_MOTION":"15.73203986","RA_OF_ASC_NODE":"78.5758","EPOCH":"2022-03-21T22:00:00.999936","SEMIMAJOR_AXIS":"6727.884","COUNTRY_CODE":"US","RCS_SIZE":"MEDIUM","TLE_LINE1":"1 51994U 22025AQ  22080.91667824 -.00000276  00000-0  24460-5 0  9991","PERIAPSIS":"348.996","APOAPSIS":"350.502","ARG_OF_PERICENTER":"75.5298","CENTER_NAME":"EARTH"}];
